     3.03           N: GNSS NAV DATA    M: MIXED            RINEX VERSION / TYPE
BNC 2.12.6          BKG Frankfurt       20190322 091725 UTC PGM / RUN BY / DATE
Concatenated RINEX files (12)                               COMMENT
                                                            END OF HEADER
C05 2019 03 21 07 00 00-1.437078462914e-04-4.390532382104e-11 0.000000000000e+00
     1.000000000000e+00-1.103125000000e+01 1.965439011281e-09-4.649503776095e-01
    -3.171153366566e-07 5.733014550060e-04-3.042211756110e-05 6.493373975754e+03
     3.708000000000e+05 3.585591912270e-08-1.398340619620e+00-3.306195139885e-08
     1.169189115591e-01 9.223750000000e+02-1.488885145814e+00-1.216122084938e-09
    -2.714398779890e-11 0.000000000000e+00 6.890000000000e+02 0.000000000000e+00
     2.000000000000e+00 0.000000000000e+00-1.000000000000e-09-9.300000000000e-09
     3.708304000000e+05 0.000000000000e+00                                      
C07 2019 03 21 07 00 00 8.598796557635e-05-2.101074869643e-11 0.000000000000e+00
     1.000000000000e+00-5.368906250000e+02 2.045442343741e-09-1.851365189568e+00
    -1.767929643393e-05 6.391684408300e-03-2.738088369370e-07 6.492825798035e+03
     3.708000000000e+05 8.847564458847e-09 2.259797498779e+00-2.570450305939e-07
     9.107995552802e-01 2.336406250000e+02-2.748884528132e+00-2.911907006901e-09
    -8.850368653379e-10 0.000000000000e+00 6.890000000000e+02 0.000000000000e+00
     2.000000000000e+00 0.000000000000e+00 1.390000000000e-08 7.000000000000e-10
     3.708000000000e+05 0.000000000000e+00                                      
C10 2019 03 21 07 00 00-5.926399026066e-04-3.335998144394e-11 0.000000000000e+00
     1.000000000000e+00-5.412187500000e+02 1.965439011281e-09-2.270102119642e+00
    -1.770304515958e-05 5.562865408137e-03 8.088536560535e-07 6.493384817123e+03
     3.708000000000e+05-3.026798367500e-08 2.251879438583e+00-1.564621925354e-07
     9.121437122069e-01 1.995156250000e+02-2.683656491259e+00-2.917264372914e-09
    -8.493210919183e-10 0.000000000000e+00 6.890000000000e+02 0.000000000000e+00
     2.000000000000e+00 0.000000000000e+00 5.100000000000e-09 2.900000000000e-09
     3.708000000000e+05 0.000000000000e+00                                      
C12 2019 03 21 07 00 00 5.094134248793e-04 3.074518417634e-11 3.117081245896e-19
     1.200000000000e+01 1.242812500000e+02 3.203347718005e-09-1.432897756800e+00
     6.197486072779e-06 2.500033820979e-03 1.311814412475e-05 5.282615310669e+03
     3.708000000000e+05 1.024454832077e-07-2.481403302076e+00 6.239861249924e-08
     9.866672285705e-01 1.060937500000e+02-2.208625692297e+00-6.555987368903e-09
     6.750281176306e-10 0.000000000000e+00 6.890000000000e+02 0.000000000000e+00
     2.000000000000e+00 0.000000000000e+00 1.600000000000e-09-5.000000000000e-10
     3.708900000000e+05 3.000000000000e+00                                      
C19 2019 03 21 07 00 00 6.657524500042e-05 7.903011578492e-12 0.000000000000e+00
     1.000000000000e+00-1.047968750000e+02 3.903019719295e-09-2.868074203077e+00
    -5.161855369806e-06 8.839674992487e-04 1.113815233111e-05 5.282625284195e+03
     3.708000000000e+05-1.443549990654e-08-3.978036973436e-01 9.359791874886e-08
     9.618315053315e-01 1.357656250000e+02-1.300190815355e+00-6.846356606805e-09
    -5.418082827755e-10 0.000000000000e+00 6.890000000000e+02 0.000000000000e+00
     2.000000000000e+00 0.000000000000e+00 8.600000000000e-09 8.600000000000e-09
     3.708000000000e+05 1.000000000000e+00                                      
C20 2019 03 21 07 00 00 2.815296174958e-04-6.754596881819e-12 0.000000000000e+00
     1.000000000000e+00-1.065468750000e+02 3.782300405137e-09-2.495879673761e+00
    -5.322042852640e-06 8.377609774470e-04 1.087179407477e-05 5.282630031586e+03
     3.708000000000e+05-2.142041921616e-08-3.971897018482e-01 4.796311259270e-08
     9.618336748390e-01 1.406875000000e+02-8.967872109698e-01-6.785282634257e-09
    -5.475228065226e-10 0.000000000000e+00 6.890000000000e+02 0.000000000000e+00
     2.000000000000e+00 0.000000000000e+00 1.490000000000e-08 1.490000000000e-08
     3.708000000000e+05 1.000000000000e+00                                      
C21 2019 03 21 07 00 00 4.490573192015e-04 3.068656440064e-12 0.000000000000e+00
     1.000000000000e+00-1.319218750000e+02 3.815158916683e-09 1.613252434554e+00
    -6.455928087234e-06 7.477218750864e-04 1.180963590741e-05 5.282630138397e+03
     3.708000000000e+05 4.936009645462e-08-3.950213763745e-01-2.747401595116e-08
     9.611230843257e-01 1.184375000000e+02-1.067404196892e+00-6.887786903971e-09
    -6.921716888720e-10 0.000000000000e+00 6.890000000000e+02 0.000000000000e+00
     2.000000000000e+00 0.000000000000e+00 1.060000000000e-08 1.060000000000e-08
     3.730500000000e+05 1.000000000000e+00                                      
C22 2019 03 21 07 00 00 3.423987654969e-04-1.385735970416e-11 0.000000000000e+00
     1.000000000000e+00-1.230781250000e+02 3.822302071366e-09 1.826314863562e+00
    -5.902722477913e-06 6.392605137080e-04 1.197773963213e-05 5.282633810043e+03
     3.708000000000e+05 1.173466444016e-07-3.951118432285e-01 2.048909664154e-08
     9.611308670499e-01 1.159843750000e+02-4.984490043218e-01-6.922788361923e-09
    -6.514557071737e-10 0.000000000000e+00 6.890000000000e+02 0.000000000000e+00
     2.000000000000e+00 0.000000000000e+00 1.240000000000e-08 1.240000000000e-08
     3.708000000000e+05 1.000000000000e+00                                      
C18 2019 03 21 07 00 00-3.312830813230e-05-1.536548666080e-12 0.000000000000e+00
     5.000000000000e+00-3.088281250000e+02 2.177947863130e-09-1.538558627210e+00
    -1.015048474070e-05 4.746115999300e-03-6.314367055890e-06 6.493132898330e+03
     3.708000000000e+05 5.587935447690e-08 2.009886929730e+00-6.286427378650e-08
     9.293086449780e-01 4.245937500000e+02 3.108563111560e+00-3.128701751560e-09
    -5.025209320140e-10 0.000000000000e+00 6.890000000000e+02 0.000000000000e+00
     2.000000000000e+00 1.000000000000e+00-3.010000071410e-08-3.010000000000e-08
     3.708000000000e+05 2.600000000000e+01                                      
C28 2019 03 21 07 00 00 8.206430356950e-05 6.959766096770e-12 0.000000000000e+00
     1.000000000000e+00 9.565625000000e+01 3.689796551980e-09 2.323529352280e+00
     4.813540726900e-06 2.016565995290e-04 1.182267442350e-05 5.282617231370e+03
     3.708000000000e+05 8.381903171540e-09-2.463390147460e+00-4.144385457040e-08
     9.637231198510e-01 1.246406250000e+02-2.035340746100e+00-6.748495387640e-09
     5.596661694850e-10 0.000000000000e+00 6.890000000000e+02 0.000000000000e+00
     2.000000000000e+00 0.000000000000e+00 0.000000000000e+00 0.000000000000e+00
     3.736800000000e+05 1.000000000000e+00                                      
C11 2019 03 21 07 00 00-6.134819705039e-05-1.872280108728e-11 0.000000000000e+00
     1.000000000000e+00 1.095781250000e+02 3.162631736306e-09-2.710166992374e+00
     5.221460014582e-06 2.038576989435e-03 1.297285780311e-05 5.282624542236e+03
     3.708000000000e+05 1.057051122189e-07-2.470846292734e+00-3.259629011154e-09
     9.878457129505e-01 1.093125000000e+02-2.113611309149e+00-6.547772741017e-09
     6.560987577182e-10 0.000000000000e+00 6.890000000000e+02 0.000000000000e+00
     2.000000000000e+00 0.000000000000e+00 3.000000000000e-09 1.300000000000e-09
     3.709200000000e+05 0.000000000000e+00                                      
C05 2019 03 21 08 00 00-1.438665203750e-04-4.399236530617e-11 0.000000000000e+00
     1.000000000000e+00-3.558593750000e+02 1.934723446140e-09-2.021631348717e-01
    -1.174490898848e-05 5.747097311541e-04-2.765096724033e-05 6.493377370834e+03
     3.744000000000e+05 3.399327397346e-08-1.202790741977e+00-1.396983861923e-08
     1.124396465797e-01 8.344218750000e+02-1.684990926475e+00-1.220407977748e-09
    -3.857303529318e-11 0.000000000000e+00 6.890000000000e+02 0.000000000000e+00
     2.000000000000e+00 0.000000000000e+00-1.000000000000e-09-9.300000000000e-09
     3.745204000000e+05 0.000000000000e+00                                      
C07 2019 03 21 08 00 00 8.591136429459e-05-2.114397545938e-11 0.000000000000e+00
     1.000000000000e+00-5.167812500000e+02 2.108302104959e-09-1.589138766717e+00
    -1.708092167974e-05 6.391646340489e-03-8.028000593185e-07 6.492820276260e+03
     3.744000000000e+05 1.606531441212e-07 2.259787763059e+00-2.873130142689e-07
     9.107962432337e-01 2.519531250000e+02-2.748519013661e+00-2.947622780320e-09
    -9.411106296067e-10 0.000000000000e+00 6.890000000000e+02 0.000000000000e+00
     2.000000000000e+00 0.000000000000e+00 1.390000000000e-08 7.000000000000e-10
     3.744600000000e+05 0.000000000000e+00                                      
C10 2019 03 21 08 00 00-5.927594611421e-04-3.329070352720e-11 0.000000000000e+00
     1.000000000000e+00-5.324218750000e+02 2.031513192107e-09-2.008265780971e+00
    -1.741480082273e-05 5.564324790612e-03-5.881302058697e-07 6.493375089645e+03
     3.744000000000e+05-1.955777406693e-08 2.251869101604e+00-1.909211277962e-07
     9.121406634856e-01 2.449687500000e+02-2.682968927076e+00-2.919050161585e-09
    -8.636074012861e-10 0.000000000000e+00 6.890000000000e+02 0.000000000000e+00
     2.000000000000e+00 0.000000000000e+00 5.100000000000e-09 2.900000000000e-09
     3.744000000000e+05 0.000000000000e+00                                      
